ONEWEB-0589             
1 54655U 22166P   25085.37666960  .00000051  00000+0  92669-4 0  9996
2 54655  87.9322 333.2783 0002233 104.8327 255.3054 13.21824015112388
ONEWEB-0590             
1 54656U 22166Q   25085.39952611  .00000261  00000+0  60064-3 0  9996
2 54656  87.9309 333.2652 0000857  81.5709 278.5522 13.21823391112376
ONEWEB-0591             
1 54657U 22166R   25085.41293307  .00000105  00000+0  22304-3 0  9992
2 54657  87.9318 333.2718 0001768  86.5649 273.5687 13.21828404112401
ONEWEB-0592             
1 54658U 22166S   25085.94596634  .00000126  00000+0  27356-3 0  9995
2 54658  87.9314 333.1212 0001746  85.9573 274.1760 13.21824432112351
ONEWEB-0593             
1 54659U 22166T   25086.12100984 -.00000293  00000+0 -74215-3 0  9999
2 54659  87.9318 333.1222 0001837  87.3580 272.7765 13.21826251112958
ONEWEB-0594             
1 54660U 22166U   25085.91286003  .00000011  00000+0 -48327-5 0  9998
2 54660  87.9322 333.1732 0001801  79.2593 280.8744 13.21827242112471
ONEWEB-0595             
1 54661U 22166V   25085.96646746  .00000094  00000+0  19688-3 0  9994
2 54661  87.9321 333.1430 0001712  76.6589 283.4736 13.21824146112451
ONEWEB-0596             
1 54662U 22166W   25086.09108287 -.00002306  00000+0 -56185-2 0  9995
2 54662  87.9321 333.1291 0000906  84.9341 275.1897 13.21802830112945
